#dV2007  4 12  0  0  0.00000000     289 ORBIT IGS14 BHN ESOC                    
## 1422 345600.00000000   900.00000000 54202 0.0000000000000                    
+    2   G01G02  0  0  0  0  0  0  0  0  0  0  0  0  0  0  0                    
+          0  0  0  0  0  0  0  0  0  0  0  0  0  0  0  0  0                    
+          0  0  0  0  0  0  0  0  0  0  0  0  0  0  0  0  0                    
+          0  0  0  0  0  0  0  0  0  0  0  0  0  0  0  0  0                    
+          0  0  0  0  0  0  0  0  0  0  0  0  0  0  0  0  0                    
++         8  8  0  0  0  0  0  0  0  0  0  0  0  0  0  0  0                    
++         0  0  0  0  0  0  0  0  0  0  0  0  0  0  0  0  0                    
++         0  0  0  0  0  0  0  0  0  0  0  0  0  0  0  0  0                    
++         0  0  0  0  0  0  0  0  0  0  0  0  0  0  0  0  0                    
++         0  0  0  0  0  0  0  0  0  0  0  0  0  0  0  0  0                    
%c M  cc GPS ccc cccc cccc cccc cccc ccccc ccccc ccccc ccccc                    
%c cc cc ccc ccc cccc cccc cccc cccc ccccc ccccc ccccc ccccc                    
%f  0.0000000  0.000000000  0.00000000000  0.000000000000000                    
%f  0.0000000  0.000000000  0.00000000000  0.000000000000000                    
%i    0    0    0    0      0      0      0      0         0                    
%i    0    0    0    0      0      0      0      0         0                    
/*   EUROPEAN SPACE OPERATIONS CENTRE - DARMSTADT, GERMANY                      
/* ---------------------------------------------------------                    
/*  SP3 FILE GENERATED BY NAPEOS BAHN TOOL  (DETERMINATION)                     
/* PCV:IGS14_2022 OL/AL:EOT11A   NONE     YN ORB:CoN CLK:CoN                    
*  2007  4 13 11  0  0.00000000                                                 
PG01  14315.858975  13562.156729  18027.975522 999999.999999                    
VG01 -22355.587970  -1574.429247  19094.468877 999999.999999                    
PG02 -14136.021138 -22383.267248  -3753.741775 999999.999999                    
VG02    664.489345  -5317.708562  30791.138875 999999.999999                    
*  2007  4 13 11 15  0.00000000                                                 
PG01  12210.790466  13471.371549  19589.312672 999999.999999                    
VG01 -24348.355018   -396.866088  15553.543021 999999.999999                    
PG02 -14012.840768 -22726.646791   -958.656255 999999.999999                    
VG02   2136.330998  -2335.436786  31234.474987 999999.999999                    
*  2007  4 13 11 30  0.00000000                                                 
PG01   9947.547574  13497.854637  20819.816410 999999.999999                    
VG01 -25861.914810   1018.165476  11752.852298 999999.999999                    
PG02 -13740.660617 -22808.953095   1852.621014 999999.999999                    
VG02   3968.343948    470.176499  31150.004116 999999.999999                    
*  2007  4 13 11 45  0.00000000                                                 
PG01   7571.345281  13659.236623  21698.926836 999999.999999                    
VG01 -26852.752043   2586.158231   7755.618595 999999.999999                    
PG02 -13289.252219 -22649.671124   4632.458076 999999.999999                    
VG02   6109.441218   3020.932004  30536.276894 999999.999999                    
*  2007  4 13 12  0  0.00000000                                                 
PG01   5130.526094  13965.225117  22211.916033 999999.999999                    
VG01 -27295.082611   4216.119978   3628.060257 999999.999999                    
PG02 -12633.628701 -22274.881489   7333.479873 999999.999999                    
VG02   8494.559736   5248.913285  29400.477723 999999.999999                    
*  2007  4 13 12 15  0.00000000                                                 
PG01   2674.919582  14417.177211  22350.114369 999999.999999                    
VG01 -27181.737809   5814.071448   -561.575559 999999.999999                    
PG02 -11755.205569 -21716.217908   9909.350569 999999.999999                    
VG02  11046.904194   7099.023565  27758.521829 999999.999999                    
*  2007  4 13 12 30  0.00000000                                                 
PG01    254.151838  15007.992507  22111.048768 999999.999999                    
VG01 -26524.390078   7286.650961  -4744.000896 999999.999999                    
PG02 -10642.737134 -21009.615409  12315.558861 999999.999999                    
VG02  13680.676489   8531.082787  25635.021893 999999.999999                    
*  2007  4 13 12 45  0.00000000                                                 
PG01  -2084.035387  15722.330788  21498.491319 999999.999999                    
VG01 -25353.112773   8544.703373  -8849.890558 999999.999999                    
PG02  -9292.988592 -20193.893041  14510.193853 999999.999999                    
VG02  16304.204518   9521.394367  23063.109601 999999.999999                    
*  2007  4 13 13  0  0.00000000                                                 
PG01  -4295.396366  16537.147376  20522.417049 999999.999999                    
VG01 -23715.286703   9506.730952 -12810.896341 999999.999999                    
PG02  -7711.112435 -19309.222328  16454.697862 999999.999999                    
VG02  18823.364661  10063.706248  20084.099155 999999.999999                    
*  2007  4 13 13 15  0.00000000                                                 
PG01  -6340.666428  17422.528379  19198.870138 999999.999999                    
VG01 -21673.886296  10102.086879 -16560.666353 999999.999999                    
PG02  -5910.708168 -18395.538673  18114.581417 999999.999999                    
VG02  21145.175273  10169.510379  16746.982635 999999.999999                    
*  2007  4 13 13 30  0.00000000                                                 
PG01  -8186.866726  18342.797488  17549.738421 999999.999999                    
VG01 -19305.198098  10273.798234 -20035.862474 999999.999999                    
PG02  -3913.555982 -17490.956877  19460.085043 999999.999999                    
VG02  23181.425093   9867.648278  13107.751187 999999.999999                    
*  2007  4 13 13 45  0.00000000                                                 
PG01  -9808.380753  19257.856236  15602.436725 999999.999999                    
VG01 -16696.043391   9980.914687 -23177.167045 999999.999999                    
PG02  -1749.027705 -16630.253703  20466.772060 999999.999999                    
VG02  24852.191719   9203.217307   9228.541292 999999.999999                    
*  2007  4 13 14  0  0.00000000                                                 
PG01 -11187.761884  20124.710828  13389.500513 999999.999999                    
VG01 -13940.594741   9200.291790 -25930.267503 999999.999999                    
PG02    546.808411 -15843.479551  21116.036852 999999.999999                    
VG02  26089.102498   8235.801773   5176.611635 999999.999999                    
*  2007  4 13 14 15  0.00000000                                                 
PG01 -12316.240053  20899.131141  10948.092397 999999.999999                    
VG01 -11136.892670   7927.733893 -28246.805004 999999.999999                    
PG02   2932.359377 -15154.757772  21395.513884 999999.999999                    
VG02  26838.193958   7037.083644   1023.163161 999999.999999                    
*  2007  4 13 14 30  0.00000000                                                 
PG01 -13193.905904  21537.381606   8319.425535 999999.999999                    
VG01  -8383.182618   6178.441150 -30085.270357 999999.999999                    
PG02   5361.913393 -14581.323864  21299.374182 999999.999999                    
VG02  27062.237130   5687.917947  -3157.977664 999999.999999                    
*  2007  4 13 14 45  0.00000000                                                 
PG01 -13829.562067  21997.959682   5548.109451 999999.999999                    
VG01  -5774.203358   3986.727804 -31411.828109 999999.999999                    
PG02   7787.226655 -14132.847811  20828.498155 999999.999999                    
VG02  26742.414630   4274.986045  -7291.784959 999999.999999                    
*  2007  4 13 15  0  0.00000000                                                 
PG01 -14240.243363  22243.275809   2681.425727 999999.999999                    
VG01  -3397.565041   1405.004378 -32201.047594 999999.999999                    
PG02  10159.228503 -13811.071571  19990.516413 999999.999999                    
VG02  25879.261062   2887.164019 -11303.534575 999999.999999                    
*  2007  4 13 15 15  0.00000000                                                 
PG01 -14450.420358  22241.209285   -231.457080 999999.999999                    
VG01  -1330.357421  -1497.955914 -32436.518475 999999.999999                    
PG02  12429.775797 -13609.780437  18799.713584 999999.999999                    
VG02  24492.810078   1611.761549 -15120.340250 999999.999999                    
*  2007  4 13 15 30  0.00000000                                                 
PG01 -14490.913177  21966.477641  -3140.317869 999999.999999                    
VG01    363.874290  -4639.417428 -32111.328089 999999.999999                    
PG02  14553.383918 -13515.112527  17276.793951 999999.999999                    
VG02  22621.927815    530.797386 -18672.680517 999999.999999                    
*  2007  4 13 15 45  0.00000000                                                 
PG01 -14397.554566  21401.762816  -5994.753346 999999.999999                    
VG01   1637.657452  -7925.671015 -31228.378837 999999.999999                    
PG02  16488.861730 -13506.195516  15448.511818 999999.999999                    
VG02  20322.851503   -282.520406 -21895.870043 999999.999999                    
EOF                                                                             
